[{"OBJECT_NAME":"ONEWEB-0576","OBJECT_ID":"2023-043V","EPOCH":"2025-09-27T13:38:03.646464","MEAN_MOTION":13.1659525,"ECCENTRICITY":0.00020406,"INCLINATION":87.8977,"RA_OF_ASC_NODE":281.1003,"ARG_OF_PERICENTER":87.4157,"MEAN_ANOMALY":272.7208,"EPHEMERIS_TYPE":0,"CLASSIFICATION_TYPE":"U","NORAD_CAT_ID":56065,"ELEMENT_SET_NO":999,"REV_AT_EPOCH":12440,"BSTAR":7.6841586e-5,"MEAN_MOTION_DOT":4.2e-7,"MEAN_MOTION_DDOT":0},{"OBJECT_NAME":"ONEWEB-0577","OBJECT_ID":"2023-043W","EPOCH":"2025-09-27T10:08:19.394880","MEAN_MOTION":13.16594588,"ECCENTRICITY":0.00020928,"INCLINATION":87.8974,"RA_OF_ASC_NODE":281.1301,"ARG_OF_PERICENTER":72.2709,"MEAN_ANOMALY":287.865,"EPHEMERIS_TYPE":0,"CLASSIFICATION_TYPE":"U","NORAD_CAT_ID":56066,"ELEMENT_SET_NO":999,"REV_AT_EPOCH":12441,"BSTAR":5.1651131e-5,"MEAN_MOTION_DOT":3.3e-7,"MEAN_MOTION_DDOT":0},{"OBJECT_NAME":"ONEWEB-0578","OBJECT_ID":"2023-043X","EPOCH":"2025-09-27T14:07:22.932768","MEAN_MOTION":13.21826263,"ECCENTRICITY":0.00021111,"INCLINATION":87.9181,"RA_OF_ASC_NODE":296.3778,"ARG_OF_PERICENTER":91.7468,"MEAN_ANOMALY":268.3908,"EPHEMERIS_TYPE":0,"CLASSIFICATION_TYPE":"U","NORAD_CAT_ID":56067,"ELEMENT_SET_NO":999,"REV_AT_EPOCH":12354,"BSTAR":1.0411176e-5,"MEAN_MOTION_DOT":1.7e-7,"MEAN_MOTION_DDOT":0},{"OBJECT_NAME":"ONEWEB-0579","OBJECT_ID":"2023-043Y","EPOCH":"2025-09-27T12:04:45.897600","MEAN_MOTION":13.21826126,"ECCENTRICITY":0.00015945,"INCLINATION":87.9184,"RA_OF_ASC_NODE":296.3816,"ARG_OF_PERICENTER":94.5694,"MEAN_ANOMALY":265.5622,"EPHEMERIS_TYPE":0,"CLASSIFICATION_TYPE":"U","NORAD_CAT_ID":56068,"ELEMENT_SET_NO":999,"REV_AT_EPOCH":12354,"BSTAR":9.2103883e-5,"MEAN_MOTION_DOT":5.1e-7,"MEAN_MOTION_DDOT":0},{"OBJECT_NAME":"ONEWEB-0581","OBJECT_ID":"2023-043Z","EPOCH":"2025-09-27T12:06:51.804000","MEAN_MOTION":13.16592809,"ECCENTRICITY":0.00017592,"INCLINATION":87.8962,"RA_OF_ASC_NODE":281.1312,"ARG_OF_PERICENTER":76.8776,"MEAN_ANOMALY":283.2551,"EPHEMERIS_TYPE":0,"CLASSIFICATION_TYPE":"U","NORAD_CAT_ID":56069,"ELEMENT_SET_NO":999,"REV_AT_EPOCH":12439,"BSTAR":7.9399302e-5,"MEAN_MOTION_DOT":4.3e-7,"MEAN_MOTION_DDOT":0},{"OBJECT_NAME":"ONEWEB-0609","OBJECT_ID":"2023-043AA","EPOCH":"2025-09-27T13:23:14.025408","MEAN_MOTION":13.15550667,"ECCENTRICITY":0.00018158,"INCLINATION":87.9004,"RA_OF_ASC_NODE":311.6285,"ARG_OF_PERICENTER":96.3501,"MEAN_ANOMALY":263.7836,"EPHEMERIS_TYPE":0,"CLASSIFICATION_TYPE":"U","NORAD_CAT_ID":56070,"ELEMENT_SET_NO":999,"REV_AT_EPOCH":12190,"BSTAR":0.00028618602,"MEAN_MOTION_DOT":1.21e-6,"MEAN_MOTION_DDOT":0},{"OBJECT_NAME":"ONEWEB-0613","OBJECT_ID":"2023-043AB","EPOCH":"2025-09-27T13:16:23.469888","MEAN_MOTION":13.15551038,"ECCENTRICITY":0.00016127,"INCLINATION":87.9004,"RA_OF_ASC_NODE":311.6432,"ARG_OF_PERICENTER":103.0758,"MEAN_ANOMALY":257.0552,"EPHEMERIS_TYPE":0,"CLASSIFICATION_TYPE":"U","NORAD_CAT_ID":56071,"ELEMENT_SET_NO":999,"REV_AT_EPOCH":12190,"BSTAR":0.00018390413,"MEAN_MOTION_DOT":8.2e-7,"MEAN_MOTION_DDOT":0},{"OBJECT_NAME":"ONEWEB-0630","OBJECT_ID":"2023-043AC","EPOCH":"2025-09-27T13:09:31.870656","MEAN_MOTION":13.1555001,"ECCENTRICITY":0.00015877,"INCLINATION":87.9002,"RA_OF_ASC_NODE":311.6167,"ARG_OF_PERICENTER":102.6937,"MEAN_ANOMALY":257.437,"EPHEMERIS_TYPE":0,"CLASSIFICATION_TYPE":"U","NORAD_CAT_ID":56072,"ELEMENT_SET_NO":999,"REV_AT_EPOCH":12189,"BSTAR":1.0765103e-5,"MEAN_MOTION_DOT":1.7e-7,"MEAN_MOTION_DDOT":0},{"OBJECT_NAME":"ONEWEB-0632","OBJECT_ID":"2023-043AD","EPOCH":"2025-09-27T13:02:41.748000","MEAN_MOTION":13.15546894,"ECCENTRICITY":0.00017154,"INCLINATION":87.9,"RA_OF_ASC_NODE":311.6375,"ARG_OF_PERICENTER":89.1077,"MEAN_ANOMALY":271.025,"EPHEMERIS_TYPE":0,"CLASSIFICATION_TYPE":"U","NORAD_CAT_ID":56073,"ELEMENT_SET_NO":999,"REV_AT_EPOCH":12189,"BSTAR":-0.00010545604,"MEAN_MOTION_DOT":-2.7e-7,"MEAN_MOTION_DDOT":0},{"OBJECT_NAME":"ONEWEB-0633","OBJECT_ID":"2023-043AE","EPOCH":"2025-09-27T12:53:33.023328","MEAN_MOTION":13.15547298,"ECCENTRICITY":0.0001729,"INCLINATION":87.9,"RA_OF_ASC_NODE":311.6023,"ARG_OF_PERICENTER":108.8645,"MEAN_ANOMALY":251.2673,"EPHEMERIS_TYPE":0,"CLASSIFICATION_TYPE":"U","NORAD_CAT_ID":56074,"ELEMENT_SET_NO":999,"REV_AT_EPOCH":12187,"BSTAR":-0.00083808906,"MEAN_MOTION_DOT":-3.03e-6,"MEAN_MOTION_DDOT":0},{"OBJECT_NAME":"ONEWEB-0634","OBJECT_ID":"2023-043AF","EPOCH":"2025-09-27T03:25:24.289536","MEAN_MOTION":13.15546876,"ECCENTRICITY":0.00021677,"INCLINATION":87.9006,"RA_OF_ASC_NODE":311.7246,"ARG_OF_PERICENTER":105.5078,"MEAN_ANOMALY":254.6292,"EPHEMERIS_TYPE":0,"CLASSIFICATION_TYPE":"U","NORAD_CAT_ID":56075,"ELEMENT_SET_NO":999,"REV_AT_EPOCH":12181,"BSTAR":-0.00034250742,"MEAN_MOTION_DOT":-1.16e-6,"MEAN_MOTION_DDOT":0},{"OBJECT_NAME":"ONEWEB-0635","OBJECT_ID":"2023-043AG","EPOCH":"2025-09-27T14:15:43.563744","MEAN_MOTION":13.15548467,"ECCENTRICITY":0.00017514,"INCLINATION":87.8992,"RA_OF_ASC_NODE":311.596,"ARG_OF_PERICENTER":86.1954,"MEAN_ANOMALY":273.9376,"EPHEMERIS_TYPE":0,"CLASSIFICATION_TYPE":"U","NORAD_CAT_ID":56076,"ELEMENT_SET_NO":999,"REV_AT_EPOCH":12190,"BSTAR":-0.00028836847,"MEAN_MOTION_DOT":-9.6e-7,"MEAN_MOTION_DDOT":0},{"OBJECT_NAME":"ONEWEB-0636","OBJECT_ID":"2023-043AH","EPOCH":"2025-09-27T14:04:17.150304","MEAN_MOTION":13.1555035,"ECCENTRICITY":0.00017604,"INCLINATION":87.8999,"RA_OF_ASC_NODE":311.6148,"ARG_OF_PERICENTER":88.5222,"MEAN_ANOMALY":271.611,"EPHEMERIS_TYPE":0,"CLASSIFICATION_TYPE":"U","NORAD_CAT_ID":56077,"ELEMENT_SET_NO":999,"REV_AT_EPOCH":12188,"BSTAR":-6.2936406e-5,"MEAN_MOTION_DOT":-1.1e-7,"MEAN_MOTION_DDOT":0},{"OBJECT_NAME":"ONEWEB-0637","OBJECT_ID":"2023-043AJ","EPOCH":"2025-09-27T12:05:40.338240","MEAN_MOTION":13.15550031,"ECCENTRICITY":0.00020805,"INCLINATION":87.9002,"RA_OF_ASC_NODE":311.6448,"ARG_OF_PERICENTER":88.2754,"MEAN_ANOMALY":271.8615,"EPHEMERIS_TYPE":0,"CLASSIFICATION_TYPE":"U","NORAD_CAT_ID":56078,"ELEMENT_SET_NO":999,"REV_AT_EPOCH":12189,"BSTAR":0.00023313408,"MEAN_MOTION_DOT":1.01e-6,"MEAN_MOTION_DDOT":0},{"OBJECT_NAME":"ONEWEB-0647","OBJECT_ID":"2023-043AK","EPOCH":"2025-09-27T11:58:47.474112","MEAN_MOTION":13.15550339,"ECCENTRICITY":0.00016552,"INCLINATION":87.9005,"RA_OF_ASC_NODE":311.659,"ARG_OF_PERICENTER":93.3875,"MEAN_ANOMALY":266.7445,"EPHEMERIS_TYPE":0,"CLASSIFICATION_TYPE":"U","NORAD_CAT_ID":56079,"ELEMENT_SET_NO":999,"REV_AT_EPOCH":12188,"BSTAR":0.00037299991,"MEAN_MOTION_DOT":1.53e-6,"MEAN_MOTION_DDOT":0},{"OBJECT_NAME":"ONEWEB-0651","OBJECT_ID":"2023-043AL","EPOCH":"2025-09-27T13:41:30.412896","MEAN_MOTION":13.15548452,"ECCENTRICITY":0.0001896,"INCLINATION":87.9004,"RA_OF_ASC_NODE":311.6368,"ARG_OF_PERICENTER":85.6201,"MEAN_ANOMALY":274.5146,"EPHEMERIS_TYPE":0,"CLASSIFICATION_TYPE":"U","NORAD_CAT_ID":56080,"ELEMENT_SET_NO":999,"REV_AT_EPOCH":12309,"BSTAR":0.00042598997,"MEAN_MOTION_DOT":1.73e-6,"MEAN_MOTION_DDOT":0},{"OBJECT_NAME":"ONEWEB-0718","OBJECT_ID":"2023-043AM","EPOCH":"2025-09-27T13:34:38.329824","MEAN_MOTION":13.15550515,"ECCENTRICITY":0.00023122,"INCLINATION":87.9002,"RA_OF_ASC_NODE":311.6184,"ARG_OF_PERICENTER":104.072,"MEAN_ANOMALY":256.0668,"EPHEMERIS_TYPE":0,"CLASSIFICATION_TYPE":"U","NORAD_CAT_ID":56081,"ELEMENT_SET_NO":999,"REV_AT_EPOCH":12190,"BSTAR":0.00034629396,"MEAN_MOTION_DOT":1.43e-6,"MEAN_MOTION_DDOT":0},{"OBJECT_NAME":"ONEWEB-0561","OBJECT_ID":"2023-068A","EPOCH":"2025-09-27T13:10:32.383488","MEAN_MOTION":13.20771108,"ECCENTRICITY":0.00015235,"INCLINATION":87.9244,"RA_OF_ASC_NODE":326.825,"ARG_OF_PERICENTER":84.434,"MEAN_ANOMALY":275.6967,"EPHEMERIS_TYPE":0,"CLASSIFICATION_TYPE":"U","NORAD_CAT_ID":56710,"ELEMENT_SET_NO":999,"REV_AT_EPOCH":11483,"BSTAR":-0.00015823239,"MEAN_MOTION_DOT":-5.1e-7,"MEAN_MOTION_DDOT":0},{"OBJECT_NAME":"ONEWEB-0668","OBJECT_ID":"2023-068B","EPOCH":"2025-09-27T13:59:44.999808","MEAN_MOTION":13.16594134,"ECCENTRICITY":0.00023921,"INCLINATION":87.8979,"RA_OF_ASC_NODE":281.0909,"ARG_OF_PERICENTER":94.7513,"MEAN_ANOMALY":265.3891,"EPHEMERIS_TYPE":0,"CLASSIFICATION_TYPE":"U","NORAD_CAT_ID":56711,"ELEMENT_SET_NO":999,"REV_AT_EPOCH":11722,"BSTAR":0.00026207096,"MEAN_MOTION_DOT":1.13e-6,"MEAN_MOTION_DDOT":0},{"OBJECT_NAME":"ONEWEB-0676","OBJECT_ID":"2023-068C","EPOCH":"2025-09-27T13:31:13.000224","MEAN_MOTION":13.16592557,"ECCENTRICITY":0.00017272,"INCLINATION":87.8967,"RA_OF_ASC_NODE":281.1128,"ARG_OF_PERICENTER":81.2433,"MEAN_ANOMALY":278.8893,"EPHEMERIS_TYPE":0,"CLASSIFICATION_TYPE":"U","NORAD_CAT_ID":56712,"ELEMENT_SET_NO":999,"REV_AT_EPOCH":11714,"BSTAR":0.00037912014,"MEAN_MOTION_DOT":1.58e-6,"MEAN_MOTION_DDOT":0},{"OBJECT_NAME":"ONEWEB-0677","OBJECT_ID":"2023-068D","EPOCH":"2025-09-27T03:49:08.795712","MEAN_MOTION":13.20778029,"ECCENTRICITY":0.00024356,"INCLINATION":87.9252,"RA_OF_ASC_NODE":326.8801,"ARG_OF_PERICENTER":113.4464,"MEAN_ANOMALY":246.6925,"EPHEMERIS_TYPE":0,"CLASSIFICATION_TYPE":"U","NORAD_CAT_ID":56713,"ELEMENT_SET_NO":999,"REV_AT_EPOCH":11508,"BSTAR":0.00058951263,"MEAN_MOTION_DOT":2.53e-6,"MEAN_MOTION_DDOT":0},{"OBJECT_NAME":"ONEWEB-0678","OBJECT_ID":"2023-068E","EPOCH":"2025-09-27T12:48:59.398848","MEAN_MOTION":13.15549986,"ECCENTRICITY":0.00014977,"INCLINATION":87.9005,"RA_OF_ASC_NODE":311.5976,"ARG_OF_PERICENTER":99.0263,"MEAN_ANOMALY":261.1036,"EPHEMERIS_TYPE":0,"CLASSIFICATION_TYPE":"U","NORAD_CAT_ID":56714,"ELEMENT_SET_NO":999,"REV_AT_EPOCH":11475,"BSTAR":-0.0004492865,"MEAN_MOTION_DOT":-1.56e-6,"MEAN_MOTION_DDOT":0},{"OBJECT_NAME":"ONEWEB-0679","OBJECT_ID":"2023-068F","EPOCH":"2025-09-27T12:46:46.224480","MEAN_MOTION":13.16595246,"ECCENTRICITY":0.00022619,"INCLINATION":87.8966,"RA_OF_ASC_NODE":281.1113,"ARG_OF_PERICENTER":81.4916,"MEAN_ANOMALY":278.6471,"EPHEMERIS_TYPE":0,"CLASSIFICATION_TYPE":"U","NORAD_CAT_ID":56715,"ELEMENT_SET_NO":999,"REV_AT_EPOCH":11716,"BSTAR":-4.0352282e-5,"MEAN_MOTION_DOT":-3.0e-8,"MEAN_MOTION_DDOT":0}]
